start=new Date('2022-12-29T00:00:00.000Z').valueOf();
sats=[{"OBJECT_TYPE":"PAYLOAD","OBJECT_NAME":"STARLINK-3182","RCS_SIZE":"LARGE","NORAD_CAT_ID":"51469","PERIOD":"95.437","REF_FRAME":"TEME","FILE":"3724827","SEMIMAJOR_AXIS":"6917.833","LAUNCH_DATE":"2022-02-03","ECCENTRICITY":"0.00022520","ELEMENT_SET_NO":"999","OBJECT_ID":"2022-010P","INCLINATION":"53.2170","MEAN_MOTION_DDOT":"0.0000000000000","REV_AT_EPOCH":"5111","MEAN_ELEMENT_THEORY":"SGP4","DECAY_DATE":null,"MEAN_MOTION":"15.08855376","RA_OF_ASC_NODE":"118.9389","ARG_OF_PERICENTER":"51.5265","CLASSIFICATION_TYPE":"U","BSTAR":"0.00015512000000","TLE_LINE2":"2 51469  53.2170 118.9389 0002252  51.5265 308.5929 15.08855376 51111","TIME_SYSTEM":"UTC","MEAN_MOTION_DOT":"0.00002182","GP_ID":"221667632","PERIAPSIS":"538.140","EPOCH":"2022-12-28T11:31:08.295168","TLE_LINE1":"1 51469U 22010P   22362.47995712  .00002182  00000-0  15512-3 0  9999","APOAPSIS":"541.256","MEAN_ANOMALY":"308.5929","CENTER_NAME":"EARTH","EPHEMERIS_TYPE":"0","COUNTRY_CODE":"US","SITE":"AFETR"},{"RCS_SIZE":"LARGE","OBJECT_TYPE":"PAYLOAD","OBJECT_NAME":"STARLINK-3165","PERIOD":"95.255","NORAD_CAT_ID":"51471","ELEMENT_SET_NO":"999","OBJECT_ID":"2022-010R","REF_FRAME":"TEME","FILE":"3725020","LAUNCH_DATE":"2022-02-03","SEMIMAJOR_AXIS":"6909.035","ECCENTRICITY":"0.00023800","REV_AT_EPOCH":"5121","MEAN_ELEMENT_THEORY":"SGP4","DECAY_DATE":null,"MEAN_MOTION":"15.11738501","MEAN_MOTION_DDOT":"0.0000000000000","INCLINATION":"53.2174","ARG_OF_PERICENTER":"189.7601","BSTAR":"0.00093899000000","CLASSIFICATION_TYPE":"U","RA_OF_ASC_NODE":"112.5303","MEAN_MOTION_DOT":"0.00015928","TLE_LINE2":"2 51471  53.2174 112.5303 0002380 189.7601 170.3346 15.11738501 51217","TIME_SYSTEM":"UTC","EPOCH":"2022-12-28T14:34:25.755456","PERIAPSIS":"529.256","TLE_LINE1":"1 51471U 22010R   22362.60724254  .00015928  00000-0  93899-3 0  9994","GP_ID":"221671936","CENTER_NAME":"EARTH","EPHEMERIS_TYPE":"0","COUNTRY_CODE":"US","SITE":"AFETR","APOAPSIS":"532.544","MEAN_ANOMALY":"170.3346"},{"NORAD_CAT_ID":"51472","PERIOD":"95.437","OBJECT_TYPE":"PAYLOAD","OBJECT_NAME":"STARLINK-3415","RCS_SIZE":"LARGE","INCLINATION":"53.2149","MEAN_MOTION_DDOT":"0.0000000000000","REV_AT_EPOCH":"5111","MEAN_ELEMENT_THEORY":"SGP4","DECAY_DATE":null,"MEAN_MOTION":"15.08848302","REF_FRAME":"TEME","FILE":"3724833","LAUNCH_DATE":"2022-02-03","SEMIMAJOR_AXIS":"6917.855","ECCENTRICITY":"0.00023950","ELEMENT_SET_NO":"999","OBJECT_ID":"2022-010S","TLE_LINE2":"2 51472  53.2149 119.0214 0002395  68.8013 291.3235 15.08848302 51110","TIME_SYSTEM":"UTC","MEAN_MOTION_DOT":"0.00001367","RA_OF_ASC_NODE":"119.0214","ARG_OF_PERICENTER":"68.8013","CLASSIFICATION_TYPE":"U","BSTAR":"0.00010397000000","APOAPSIS":"541.377","MEAN_ANOMALY":"291.3235","CENTER_NAME":"EARTH","EPHEMERIS_TYPE":"0","SITE":"AFETR","COUNTRY_CODE":"US","GP_ID":"221667677","EPOCH":"2022-12-28T11:04:38.942976","PERIAPSIS":"538.063","TLE_LINE1":"1 51472U 22010S   22362.46156184  .00001367  00000-0  10397-3 0  9994"},{"RA_OF_ASC_NODE":"168.4094","ARG_OF_PERICENTER":"53.5285","BSTAR":"0.00015865000000","CLASSIFICATION_TYPE":"U","TIME_SYSTEM":"UTC","TLE_LINE2":"2 51714  53.2143 168.4094 0002390  53.5285 306.5927 15.08846166 47235","MEAN_MOTION_DOT":"0.00002238","GP_ID":"221695229","PERIAPSIS":"538.073","EPOCH":"2022-12-28T14:19:24.667392","TLE_LINE1":"1 51714U 22016A   22362.59681328  .00002238  00000-0  15865-3 0  9999","MEAN_ANOMALY":"306.5927","APOAPSIS":"541.380","CENTER_NAME":"EARTH","COUNTRY_CODE":"US","SITE":"AFETR","EPHEMERIS_TYPE":"0","OBJECT_TYPE":"PAYLOAD","OBJECT_NAME":"STARLINK-3528","RCS_SIZE":"LARGE","NORAD_CAT_ID":"51714","PERIOD":"95.437","FILE":"3725038","REF_FRAME":"TEME","ECCENTRICITY":"0.00023900","LAUNCH_DATE":"2022-02-21","SEMIMAJOR_AXIS":"6917.862","ELEMENT_SET_NO":"999","OBJECT_ID":"2022-016A","INCLINATION":"53.2143","MEAN_MOTION_DDOT":"0.0000000000000","DECAY_DATE":null,"MEAN_ELEMENT_THEORY":"SGP4","REV_AT_EPOCH":"4723","MEAN_MOTION":"15.08846166"},{"TIME_SYSTEM":"UTC","TLE_LINE2":"2 51715  53.2147 168.4642 0002815  46.1660 313.9564 15.08842045 48362","MEAN_MOTION_DOT":"0.00002631","RA_OF_ASC_NODE":"168.4642","ARG_OF_PERICENTER":"46.1660","CLASSIFICATION_TYPE":"U","BSTAR":"0.00018338000000","MEAN_ANOMALY":"313.9564","APOAPSIS":"541.687","CENTER_NAME":"EARTH","SITE":"AFETR","COUNTRY_CODE":"US","EPHEMERIS_TYPE":"0","GP_ID":"221695977","EPOCH":"2022-12-28T14:03:31.106016","PERIAPSIS":"537.792","TLE_LINE1":"1 51715U 22016B   22362.58577669  .00002631  00000-0  18338-3 0  9996","NORAD_CAT_ID":"51715","PERIOD":"95.437","OBJECT_TYPE":"PAYLOAD","OBJECT_NAME":"STARLINK-3533","RCS_SIZE":"LARGE","INCLINATION":"53.2147","MEAN_MOTION_DDOT":"0.0000000000000","MEAN_ELEMENT_THEORY":"SGP4","DECAY_DATE":null,"REV_AT_EPOCH":"4836","MEAN_MOTION":"15.08842045","FILE":"3725038","REF_FRAME":"TEME","ECCENTRICITY":"0.00028150","LAUNCH_DATE":"2022-02-21","SEMIMAJOR_AXIS":"6917.874","ELEMENT_SET_NO":"999","OBJECT_ID":"2022-016B"},{"REF_FRAME":"TEME","FILE":"3725038","SEMIMAJOR_AXIS":"6917.882","LAUNCH_DATE":"2022-02-21","ECCENTRICITY":"0.00030050","ELEMENT_SET_NO":"999","OBJECT_ID":"2022-016C","INCLINATION":"53.2142","MEAN_MOTION_DDOT":"0.0000000000000","REV_AT_EPOCH":"4723","DECAY_DATE":null,"MEAN_ELEMENT_THEORY":"SGP4","MEAN_MOTION":"15.08839410","OBJECT_TYPE":"PAYLOAD","OBJECT_NAME":"STARLINK-3543","RCS_SIZE":"LARGE","NORAD_CAT_ID":"51716","PERIOD":"95.438","GP_ID":"221696229","EPOCH":"2022-12-28T14:14:06.527040","PERIAPSIS":"537.668","TLE_LINE1":"1 51716U 22016C   22362.59313110  .00000266  00000-0  34852-4 0  9999","APOAPSIS":"541.826","MEAN_ANOMALY":"314.8778","CENTER_NAME":"EARTH","EPHEMERIS_TYPE":"0","COUNTRY_CODE":"US","SITE":"AFETR","RA_OF_ASC_NODE":"168.4255","ARG_OF_PERICENTER":"45.2459","CLASSIFICATION_TYPE":"U","BSTAR":"0.00003485200000","TLE_LINE2":"2 51716  53.2142 168.4255 0003005  45.2459 314.8778 15.08839410 47230","TIME_SYSTEM":"UTC","MEAN_MOTION_DOT":"0.00000266"},{"MEAN_MOTION_DOT":"0.00001414","TIME_SYSTEM":"UTC","TLE_LINE2":"2 51717  53.2149 168.4421 0003022  46.6321 313.4923 15.08842500 47236","ARG_OF_PERICENTER":"46.6321","BSTAR":"0.00010694000000","CLASSIFICATION_TYPE":"U","RA_OF_ASC_NODE":"168.4421","CENTER_NAME":"EARTH","COUNTRY_CODE":"US","SITE":"AFETR","EPHEMERIS_TYPE":"0","MEAN_ANOMALY":"313.4923","APOAPSIS":"541.828","PERIAPSIS":"537.647","EPOCH":"2022-12-28T14:08:48.695136","TLE_LINE1":"1 51717U 22016D   22362.58945249  .00001414  00000-0  10694-3 0  9996","GP_ID":"221696470","PERIOD":"95.437","NORAD_CAT_ID":"51717","RCS_SIZE":"LARGE","OBJECT_TYPE":"PAYLOAD","OBJECT_NAME":"STARLINK-3445","DECAY_DATE":null,"MEAN_ELEMENT_THEORY":"SGP4","REV_AT_EPOCH":"4723","MEAN_MOTION":"15.08842500","INCLINATION":"53.2149","MEAN_MOTION_DDOT":"0.0000000000000","ELEMENT_SET_NO":"999","OBJECT_ID":"2022-016D","FILE":"3725038","REF_FRAME":"TEME","ECCENTRICITY":"0.00030220","LAUNCH_DATE":"2022-02-21","SEMIMAJOR_AXIS":"6917.873"},{"RCS_SIZE":"LARGE","OBJECT_NAME":"STARLINK-3546","OBJECT_TYPE":"PAYLOAD","PERIOD":"95.438","NORAD_CAT_ID":"51718","OBJECT_ID":"2022-016E","ELEMENT_SET_NO":"999","ECCENTRICITY":"0.00034420","SEMIMAJOR_AXIS":"6917.880","LAUNCH_DATE":"2022-02-21","FILE":"3725038","REF_FRAME":"TEME","MEAN_MOTION":"15.08840223","DECAY_DATE":null,"MEAN_ELEMENT_THEORY":"SGP4","REV_AT_EPOCH":"4835","INCLINATION":"53.2160","MEAN_MOTION_DDOT":"0.0000000000000","BSTAR":"0.00011293000000","CLASSIFICATION_TYPE":"U","ARG_OF_PERICENTER":"39.2190","RA_OF_ASC_NODE":"168.4938","MEAN_MOTION_DOT":"0.00001509","TIME_SYSTEM":"UTC","TLE_LINE2":"2 51718  53.2160 168.4938 0003442  39.2190 320.9051 15.08840223 48350","TLE_LINE1":"1 51718U 22016E   22362.57473164  .00001509  00000-0  11293-3 0  9999","EPOCH":"2022-12-28T13:47:36.813696","PERIAPSIS":"537.364","GP_ID":"221695729","SITE":"AFETR","COUNTRY_CODE":"US","EPHEMERIS_TYPE":"0","CENTER_NAME":"EARTH","MEAN_ANOMALY":"320.9051","APOAPSIS":"542.126"},{"MEAN_MOTION_DDOT":"0.0000000000000","INCLINATION":"53.2150","DECAY_DATE":null,"MEAN_ELEMENT_THEORY":"SGP4","REV_AT_EPOCH":"4723","MEAN_MOTION":"15.08842052","FILE":"3725038","REF_FRAME":"TEME","ECCENTRICITY":"0.00027960","LAUNCH_DATE":"2022-02-21","SEMIMAJOR_AXIS":"6917.874","ELEMENT_SET_NO":"999","OBJECT_ID":"2022-016F","NORAD_CAT_ID":"51719","PERIOD":"95.437","OBJECT_TYPE":"PAYLOAD","OBJECT_NAME":"STARLINK-3540","RCS_SIZE":"LARGE","MEAN_ANOMALY":"317.9214","APOAPSIS":"541.673","CENTER_NAME":"EARTH","SITE":"AFETR","COUNTRY_CODE":"US","EPHEMERIS_TYPE":"0","GP_ID":"221695478","EPOCH":"2022-12-28T13:58:12.537984","PERIAPSIS":"537.805","TLE_LINE1":"1 51719U 22016F   22362.58208956  .00000321  00000-0  38278-4 0  9990","TIME_SYSTEM":"UTC","TLE_LINE2":"2 51719  53.2150 168.4812 0002796  42.1993 317.9214 15.08842052 47231","MEAN_MOTION_DOT":"0.00000321","RA_OF_ASC_NODE":"168.4812","ARG_OF_PERICENTER":"42.1993","CLASSIFICATION_TYPE":"U","BSTAR":"0.00003827800000"},{"MEAN_MOTION_DOT":"-0.00000476","TLE_LINE2":"2 51720  53.2164 168.5186 0002680  37.5694 322.5485 15.08838681 47225","TIME_SYSTEM":"UTC","ARG_OF_PERICENTER":"37.5694","BSTAR":"-0.00001177600000","CLASSIFICATION_TYPE":"U","RA_OF_ASC_NODE":"168.5186","CENTER_NAME":"EARTH","EPHEMERIS_TYPE":"0","COUNTRY_CODE":"US","SITE":"AFETR","APOAPSIS":"541.603","MEAN_ANOMALY":"322.5485","PERIAPSIS":"537.895","EPOCH":"2022-12-28T13:42:18.988704","TLE_LINE1":"1 51720U 22016G   22362.57105311 -.00000476  00000-0 -11776-4 0  9999","GP_ID":"221696728","PERIOD":"95.438","NORAD_CAT_ID":"51720","RCS_SIZE":"LARGE","OBJECT_TYPE":"PAYLOAD","OBJECT_NAME":"STARLINK-3526","REV_AT_EPOCH":"4722","MEAN_ELEMENT_THEORY":"SGP4","DECAY_DATE":null,"MEAN_MOTION":"15.08838681","INCLINATION":"53.2164","MEAN_MOTION_DDOT":"0.0000000000000","ELEMENT_SET_NO":"999","OBJECT_ID":"2022-016G","REF_FRAME":"TEME","FILE":"3725038","LAUNCH_DATE":"2022-02-21","SEMIMAJOR_AXIS":"6917.884","ECCENTRICITY":"0.00026800"}];
